university_code,university_name,country,province_state,city,address,website,type,language,established
CA-AB-007,Alberta University of the Arts,Canada,Alberta,Calgary,"1407 14 Ave NW, Calgary, AB T2N 4R3",http://www.auarts.ca/,public,English,1926
CA-NS-003,Acadia University,Canada,Nova Scotia,Wolfville,"15 University Ave, Wolfville, NS B4P 2R6",https://www.acadiau.ca/,public,English,1838
CA-ON-020,Algoma University,Canada,Ontario,Sault Ste. Marie,"1520 Queen St E, Sault Ste. Marie, ON P6A 2G3",https://www.algomau.ca/,public,English,2008
CA-AB-003,Athabasca University,Canada,Alberta,Athabasca,"1 University Dr, Athabasca, AB T9S 3A3",http://www.athabascau.ca/,public,English,1970
CA-QC-011,Bishop's University,Canada,Québec,Sherbrooke,"2600 College St, Sherbrooke, Quebec J1M 1Z7",http://www.ubishops.ca/,public,English,1843
CA-MB-003,Brandon University,Canada,Manitoba,Brandon,"270 18th St, Brandon, MB R7A 6A9",http://www.brandonu.ca/,public,English,1899
CA-ON-012,Brock University,Canada,Ontario,St. Catharines,"1812 Sir Isaac Brock Way, St. Catharines, ON L2S 3A1",https://www.brocku.ca/,public,English,1964
CA-NS-004,Cape Breton University,Canada,Nova Scotia,Sydney,"1250 Grand Lake Rd, Sydney, NS B1M 1A2",http://www.cbu.ca/,public,English,1974
CA-BC-008,Capilano University,Canada,British Columbia,North Vancouver,"2055 Purcell Way, North Vancouver, BC V7J 3H5",https://www.capilanou.ca/,public,English,1968
CA-ON-009,Carleton University,Canada,Ontario,Ottawa,1125 Colonel By Drive Ottawa ON K1S 5B6 Canada,https://www.carleton.ca/,public,English,1942
CA-QC-004,Concordia University,Canada,Québec,Montréal,1455 de Maisonneuve Boulevard West Montreal QC H3G 1M8 Canada,https://www.concordia.ca/,public,English,1974
CA-NS-001,Dalhousie University,Canada,Nova Scotia,Halifax,6299 South Street Halifax NS B3H 4R2 Canada,http://www.dal.ca/,public,English,1818
CA-QC-013,École de technologie supérieure,Canada,Québec,Montréal,"1100 Notre-Dame St W, Montreal, Quebec H3C 1K3",http://www.etsmtl.ca/,public,French,1974
CA-QC-014,École nationale d'administration publique,Canada,Québec,Québec City,"555 Boulevard Charest E 2e etage, Québec, QC G1K 9E5",https://www.enap.ca/,public,French,1969
CA-BC-007,Emily Carr University of Art + Design,Canada,British Columbia,Vancouver,"520 E 1st Ave, Vancouver, BC V5T 0H2",https://www.ecuad.ca/,public,English,1925
CA-QC-015,Institut national de la recherche scientifique,Canada,Québec,Québec City,"490 Couronne St, Québec City, Quebec G1K 9A9",https://www.inrs.ca/,public,French,1969
CA-BC-009,Kwantlen Polytechnic University,Canada,British Columbia,Surrey,"12666 72 Ave, Surrey, BC V3W 2M8",http://www.kpu.ca/,public,English,1981
CA-ON-014,Lakehead University,Canada,Ontario,Thunder Bay,"955 Oliver Rd, Thunder Bay, ON P7B 5E1",http://www.lakeheadu.ca/,public,English,1965
CA-ON-015,Laurentian University,Canada,Ontario,Sudbury,"935 Ramsey Lake Rd, Sudbury, ON P3E 2C6",https://www.laurentian.ca/,public,English; French,1960
CA-AB-005,MacEwan University,Canada,Alberta,Edmonton,"10700 104 Ave NW, Edmonton, AB T5H 0K9",https://www.macewan.ca/,public,English,1971
CA-QC-001,McGill University,Canada,Québec,Montréal,845 Sherbrooke Street West Montreal QC H3A 0G4 Canada,https://www.mcgill.ca/,public,English,1821
CA-ON-002,McMaster University,Canada,Ontario,Hamilton,1280 Main Street West Hamilton ON L8S 4L8 Canada,https://www.mcmaster.ca/,public,English,1887
CA-NL-001,Memorial University of Newfoundland,Canada,Newfoundland and Labrador,St. John's,"St. John's, NL A1C 5S7",https://www.mun.ca/,public,English,1925
CA-NB-002,Mount Allison University,Canada,New Brunswick,Sackville,"62A York St, Sackville, NB E4L 1C6",https://www.mta.ca/,public,English,1839
CA-AB-006,Mount Royal University,Canada,Alberta,Calgary,"4825 Mt Royal Gate SW, Calgary, AB T3E 6K6",http://www.mtroyal.ca/,public,English,1910
CA-NS-005,Mount Saint Vincent University,Canada,Nova Scotia,Halifax,"166 Bedford Hwy, Halifax, NS B3M 1P5",http://www.msvu.ca/,public,English,1873
CA-ON-018,Nipissing University,Canada,Ontario,North Bay,"100 College Dr, North Bay, ON P1B 8L7",https://www.nipissingu.ca/,public,English,1992
CA-NS-007,Nova Scotia College of Art and Design University,Canada,Nova Scotia,Halifax,"5163 Duke St, Halifax, NS B3J 3J6",http://www.nscad.ca/,public,English,1887
CA-ON-017,Ontario College of Art and Design University,Canada,Ontario,Toronto,"100 McCaul St, Toronto, ON M5T 1G1",http://www.ocadu.ca/,public,English,1876
CA-ON-019,Ontario Tech University,Canada,Ontario,Oshawa,"2000 Simcoe St N, Oshawa, ON L1G 0C5",https://www.ontariotechu.ca/,public,English,2002
CA-ON-008,Queen's University,Canada,Ontario,Kingston,74 Union Street Kingston ON K7L 3N6 Canada,https://www.queensu.ca/,public,English,1841
CA-BC-012,Royal Roads University,Canada,British Columbia,Victoria,"2005 Sooke Rd, Victoria, BC V9B 5Y2",http://www.royalroads.ca/,public,English,1995
CA-ON-021,Royal Military College of Canada,Canada,Ontario,Kingston,"13 General Crerar Crescent, Kingston, ON K7K 7B4",https://www.rmc-cmr.ca/en,public,English; French,1876
CA-NS-002,Saint Mary's University,Canada,Nova Scotia,Halifax,"923 Robie St, Halifax, NS B3H 3C3",https://www.smu.ca/,public,English,1802
CA-BC-002,Simon Fraser University,Canada,British Columbia,Burnaby,8888 University Drive Burnaby BC V5A 1S6 Canada,http://www.sfu.ca/,public,English,1965
CA-NS-006,St. Francis Xavier University,Canada,Nova Scotia,Antigonish,"4130 University Ave, Antigonish, NS B2G 2W5",http://www.stfxuniversity.ca/,public,English,1853
CA-NB-003,St. Thomas University,Canada,New Brunswick,Fredericton,"51 Dineen Dr, Fredericton, NB E3B 9V7",https://www.stu.ca/,public,English,1910
CA-BC-004,Thompson Rivers University,Canada,British Columbia,Kamloops,"805 Tru Way, Kamloops, BC V2C 0C8",https://www.tru.ca/,public,English,1970
CA-ON-010,Toronto Metropolitan University,Canada,Ontario,Toronto,350 Victoria Street Toronto ON M5B 2K3 Canada,https://www.torontomu.ca/,public,English,1948
CA-ON-016,Trent University,Canada,Ontario,Peterborough,"1600 W Bank Dr, Peterborough, ON K9L 0G2",https://www.trentu.ca/,public,English,1963
CA-BC-006,Trinity Western University,Canada,British Columbia,Langley,"22500 University Dr, Langley Twp, BC V2Y 1Y1",https://www.twu.ca/,private,English,1662
CA-ON-022,Université de Hearst,Canada,Ontario,Hearst,"60 9th St, Hearst, ON P0L 1N0",http://www.uhearst.ca/,public,French,1953
CA-ON-023,Université de l'Ontario français,Canada,Ontario,Toronto,"9 Lower Jarvis St, Toronto, ON M5E 0C3",http://www.uontario.ca/,public,French,2018
CA-NB-004,Université de Moncton,Canada,New Brunswick,Moncton,"18 Antonine-Maillet Ave, Moncton, NB E1A 3E9",http://www.umoncton.ca/,public,French,1963
CA-QC-002,Université de Montréal,Canada,Québec,Montréal,2900 Boulevard Édouard-Montpetit Montreal QC H3T 1J4 Canada,https://www.umontreal.ca/,public,French,1878
CA-MB-004,Université de Saint-Boniface,Canada,Manitoba,Winnipeg,"200 De La Cathedrale Ave, Winnipeg, MB R2H 0H7",https://www.ustboniface.ca/,public,French,1818
CA-QC-012,Université de Sherbrooke,Canada,Québec,Sherbrooke,"2500 Bd de l'Université, Sherbrooke, QC J1N 3C6",http://www.usherbrooke.ca/,public,French,1954
CA-ON-024,Université de Sudbury,Canada,Ontario,Sudbury,"935 Ramsey Lake Rd, Sudbury, ON P3E 2C6",https://www.usudbury.ca/,public,French,1913
CA-QC-007,Université du Québec à Chicoutimi,Canada,Québec,Chicoutimi,"555 Bd de l'Université, Chicoutimi, QC G7H 2B1",http://www.uqac.ca/,public,French,1969
CA-QC-003,Université du Québec à Montréal,Canada,Québec,Montréal,"405 Rue Sainte-Catherine Est, Montréal, QC H2L 2C4",https://www.uqam.ca/,public,French,1969
CA-QC-009,Université du Québec à Rimouski,Canada,Québec,Rimouski,"300, allée des Ursulines, C.P. 3300, succ. A, 300 All. des Ursulines, Rimouski, QC G5L 3A1",https://www.uqar.ca/,public,French,1969
CA-QC-006,Université du Québec à Trois-Rivières,Canada,Québec,Trois-Rivières,"835 Boulevard du St Maurice, Trois-Rivières, QC G9A 1R8",https://www.uqtr.ca/,public,French,1969
CA-QC-010,Université du Québec en Abitibi-Témiscamingue,Canada,Québec,Rouyn-Noranda,"445 Bd de l'Université, Rouyn-Noranda, QC J9X 5E4",https://www.uqat.ca/,public,French,1970
CA-QC-008,Université du Québec en Outaouais,Canada,Québec,Gatineau,"283 Alexandre-Taché Blvd, Gatineau, Quebec J8X 3X7",http://www.uqo.ca/,public,French,1970
CA-QC-005,Université Laval,Canada,Québec,Québec City,"2325 rue de l'Université, Québec QC G1V 0A6 Canada",https://www.ulaval.ca/,public,French,1663
CA-NS-008,Université Sainte-Anne,Canada,Nova Scotia,Pointe-de-l'Église,"1695 Route 1, Church Point, NS B0W 1M0",https://www.usainteanne.ca/,public,French,1890
CA-QC-016,Université TÉLUQ,Canada,Québec,Québec City,"455 Rue du Parvis, Québec, QC G1K 9H6",https://www.teluq.ca/,public,French,1972
CA-MB-005,University College of the North,Canada,Manitoba,The Pas,"436 7 St E, The Pas, MB R9A 1T4",https://www.ucn.ca/,public,English,1966
CA-AB-001,University of Alberta,Canada,Alberta,Edmonton,116 Street and 85th Avenue Edmonton AB T6G 2R3 Canada,http://www.ualberta.ca/,public,English; French,1906
CA-BC-001,University of British Columbia,Canada,British Columbia,Vancouver,2329 West Mall Vancouver BC V6T 1Z4 Canada,https://www.ubc.ca/,public,English,1908
CA-AB-002,University of Calgary,Canada,Alberta,Calgary,2500 University Drive NW Calgary AB T2N 1N4 Canada,https://www.ucalgary.ca/,public,English,1966
CA-ON-006,University of Guelph,Canada,Ontario,Guelph,50 Stone Road East Guelph ON N1G 2W1 Canada,https://www.uoguelph.ca/,public,English,1964
CA-NS-009,University of King's College,Canada,Nova Scotia,Halifax,"6350 Coburg Rd, Halifax, NS B3H 1Z9",https://www.ukings.ca/,public,English,1789
CA-AB-004,University of Lethbridge,Canada,Alberta,Lethbridge,"4401 University Dr W, Lethbridge, AB T1K 3M4",http://www.ulethbridge.ca/,public,English,1967
CA-MB-001,University of Manitoba,Canada,Manitoba,Winnipeg,66 Chancellors Circle Winnipeg MB R3T 2N2 Canada,https://www.umanitoba.ca/,public,English; French,1877
CA-NB-001,University of New Brunswick,Canada,New Brunswick,Fredericton,"3 Bailey Dr, Fredericton, NB E3B 5A3",http://www.unb.ca/,public,English,1785
CA-BC-005,University of Northern British Columbia,Canada,British Columbia,Prince George,"3333 University Way, Prince George, BC V2N 4Z9",https://www.unbc.ca/,public,English,1990
CA-ON-004,University of Ottawa,Canada,Ontario,Ottawa,75 Laurier Avenue East Ottawa ON K1N 6N5 Canada,https://www.uottawa.ca/en,public,English; French,1848
CA-PE-001,University of Prince Edward Island,Canada,Prince Edward Island,Charlottetown,550 University Avenue Charlottetown PE C1A 4P3 Canada,https://www.upei.ca/,public,English,1969
CA-SK-002,University of Regina,Canada,Saskatchewan,Regina,"3737 Wascana Pkwy, Regina, SK S4S 0A2",https://www.uregina.ca/,public,English,1911
CA-SK-001,University of Saskatchewan,Canada,Saskatchewan,Saskatoon,"105 Administration Pl, Saskatoon, SK S7N 5A2",http://www.usask.ca/,public,English,1907
CA-BC-011,University of the Fraser Valley,Canada,British Columbia,Abbotsford,"33844 King Rd, Abbotsford, BC V2S 7M7",https://www.ufv.ca/,public,English,1974
CA-ON-001,University of Toronto,Canada,Ontario,Toronto,27 King's College Circle Toronto ON M5S 1A1 Canada,https://www.utoronto.ca/,public,English,1827
CA-BC-003,University of Victoria,Canada,British Columbia,Victoria,3800 Finnerty Rd Victoria BC V8P 5C2 Canada,https://www.uvic.ca/,public,English,1963
CA-ON-003,University of Waterloo,Canada,Ontario,Waterloo,200 University Avenue West Waterloo ON N2L 3G1 Canada,https://www.uwaterloo.ca/,public,English,1957
CA-ON-013,University of Windsor,Canada,Ontario,Windsor,"401 Sunset Ave, Windsor, ON N9B 3P4",http://www.uwindsor.ca/,public,English,1857
CA-MB-002,University of Winnipeg,Canada,Manitoba,Winnipeg,"515 Portage Ave, Winnipeg, MB R3B 2E9",http://www.uwinnipeg.ca/,public,English,1871
CA-BC-010,Vancouver Island University,Canada,British Columbia,Nanaimo,"900 Fifth St, Nanaimo, BC V9R 5S5",https://www.viu.ca/,public,English,1969
CA-ON-005,University of Western Ontario,Canada,Ontario,London,1151 Richmond Street London ON N6A 3K7 Canada,http://www.uwo.ca/,public,English,1878
CA-ON-011,Wilfrid Laurier University,Canada,Ontario,Waterloo,"75 University Ave W, Waterloo, ON N2L 3C5",https://www.wlu.ca/,public,English,1911
CA-ON-007,York University,Canada,Ontario,Toronto,4700 Keele Street Toronto ON M3J 1P3 Canada,https://www.yorku.ca/,public,English,1959
CA-YT-001,Yukon University,Canada,Yukon,Whitehorse,"500 University Drive, Whitehorse, YT Y1A 0M4",http://www.yukonu.ca/,public,English,1983
CA-AB-008,Ambrose University,Canada,Alberta,Calgary,"150 Ambrose Cir SW, Calgary, AB T3H 5M6",https://www.ambrose.edu/,private,English,1921
CA-MB-006,Booth University College,Canada,Manitoba,Winnipeg,"290 Vaughan St, Winnipeg, MB R3B 2N8",https://www.boothuc.ca/,private,English,1982
CA-AB-009,Burman University,Canada,Alberta,Lacombe,"6730 University Dr, Lacombe, AB T4L 2E9",http://www.burmanu.ca/,private,English,1907
CA-MB-007,Canadian Mennonite University,Canada,Manitoba,Winnipeg,"500 Shaftesbury Blvd, Winnipeg, MB R3P 2N2",https://www.cmu.ca/,private,English,1999
CA-AB-010,Concordia University of Edmonton,Canada,Alberta,Edmonton,"7128 Ada Blvd NW, Edmonton, AB T5B 4E3",https://www.concordia.ab.ca/,private,English,1921
CA-NB-005,Crandall University,Canada,New Brunswick,Moncton,"333 Gorge Rd, Moncton, NB E1G 3H9",https://www.crandallu.ca/,private,English,1949
CA-NB-006,Kingswood University,Canada,New Brunswick,Sussex,"26 Western St, Sussex, NB E4E 1E6",http://www.kingswood.edu/,private,English,1945
CA-BC-013,Pacific Coast University for Workplace Health Sciences,Canada,British Columbia,Port Alberni,"4755 Cherry Creek Rd, Port Alberni, BC V9Y 0A7",https://www.pcu-whs.ca/,private,English,2007
CA-MB-008,Providence University College and Theological Seminary,Canada,Manitoba,Otterburne,"10 College Cres, Otterburne, MB R0A 1G0",https://www.prov.ca/,private,English,1925
CA-ON-025,Redeemer University,Canada,Ontario,Ancaster,"777 Garner Rd E, Ancaster, ON L9K 1J4",http://www.redeemer.ca/,private,English,1982
CA-AB-011,"St. Mary's University, Calgary",Canada,Alberta,Calgary,"14500 Bannister Rd SE, Calgary, AB T2X 3J3",http://www.stmu.ca/,private,English,1986
CA-NB-007,St. Stephen's University,Canada,New Brunswick,St. Stephen,"8 Main St, St Stephen, NB E3L 3E2",http://www.ssu.ca/,private,English,1975
CA-AB-012,The King's University,Canada,Alberta,Edmonton,"9125 50 St NW, Edmonton, AB T6B 2H3",http://www.kingsu.ca/,private,English,1979
CA-ON-026,Tyndale University,Canada,Ontario,Toronto,"3377 Bayview Ave, North York, ON M2M 3S4",http://www.tyndale.ca/,private,English,1894
CA-BC-014,University Canada West,Canada,British Columbia,Vancouver,"626 W Pender St #100, Vancouver, BC V6B 1V9",https://www.ucanwest.ca/,private,English,2005
CA-NB-008,University of Fredericton,Canada,New Brunswick,Fredericton,"570 Queen St Suite 200, Fredericton, NB E3B 6Z6",http://www.ufred.ca/,private,English,2005
CA-ON-027,University of Niagara Falls Canada,Canada,Ontario,Niagara Falls,"4342 Queen St, Niagara Falls, ON L2E 7J7",https://www.unfc.ca/,private,English,2024
CA-ON-028,Yorkville University,Canada,British Columbia; New Brunswick; Ontario,Fredericton; Toronto; Vancouver; Vaughan,"2000 Steeles Ave W, Concord, ON L4K 4N1",https://www.yorkvilleu.ca/,private,English,2003